FLOCK 4BE-7             
1 60481U 24149P   26168.47804419  .00017600  00000+0  43801-3 0  9991
2 60481  97.3760 251.5491 0002103 233.8372 126.2680 15.40328609102291
TOMORROW-S2             
1 60485U 24149T   26167.70990369  .00006515  00000+0  20852-3 0  9994
2 60485  97.3822 248.6719 0001285 264.5379  95.5716 15.32744951102013
FLOCK 4BE-36            
1 60486U 24149U   26168.11727060  .00012513  00000+0  28847-3 0  9994
2 60486  97.3745 252.5445 0002372 252.1902 107.9087 15.42719463102347
FLOCK 4BE-25            
1 60487U 24149V   26168.15283389  .00010360  00000+0  27185-3 0  9992
2 60487  97.3801 251.3027 0001330 217.9017 142.2135 15.38834525102239
FLOCK 4BE-31            
1 60488U 24149W   26168.53711535  .00016007  00000+0  35166-3 0  9996
2 60488  97.3801 253.8280 0001411 241.0070 119.1037 15.44101644102437
FLOCK 4BE-20            
1 60489U 24149X   26168.11627520  .00010915  00000+0  29360-3 0  9992
2 60489  97.3700 250.1453 0002537 249.6621 110.4351 15.38053283102200
FLOCK 4BE-23            
1 60490U 24149Y   26167.71604064  .00011488  00000+0  31281-3 0  9998
2 60490  97.3785 250.1196 0002002 260.7915  99.3103 15.37662669102120
FLOCK 4BE-15            
1 60491U 24149Z   26168.53602477  .00077550  00000+0  96244-3 0  9998
2 60491  97.3687 253.9291 0003148 238.2787 121.8163 15.59762010102489
FLOCK 4BE-17            
1 60492U 24149AA  26168.15576747  .00012005  00000+0  30505-3 0  9999
2 60492  97.3775 251.5246 0002087 235.0177 125.0873 15.39782305102257
NUSAT-50 (NANCY ROMAN)  
1 60493U 24149AB  26167.71056845  .00007797  00000+0  27231-3 0  9997
2 60493  97.3792 248.9695 0003423 175.1344 184.9930 15.29849362102052
FLOCK 4BE-22            
1 60494U 24149AC  26168.46198568  .00013096  00000+0  31768-3 0  9999
2 60494  97.3735 252.0254 0002363 251.9089 108.1901 15.41173805102342
FLOCK 4BE-34            
1 60495U 24149AD  26168.28435647  .00011824  00000+0  28721-3 0  9994
2 60495  97.3788 252.6684 0002195 266.1536  93.9460 15.41159325102344
TYCHE                   
1 60496U 24149AE  26168.46347065  .00003461  00000+0  13748-3 0  9992
2 60496  97.3754 246.2762 0000671 240.9162 119.2010 15.25990153101948
FLOCK 4BE-32            
1 60497U 24149AF  26168.12311705  .00014187  00000+0  33293-3 0  9992
2 60497  97.3724 252.0492 0002402 258.3522 101.7456 15.42153799102327
NUSAT-48 (HENRIETTA LE*)
1 60498U 24149AG  26168.15704538  .00007081  00000+0  24750-3 0  9999
2 60498  97.3923 249.6562 0002398 276.0323  84.0644 15.29859874102132
FLOCK 4BE-30            
1 60499U 24149AH  26167.74262063  .00103197  00000+0  14465-2 0  9992
2 60499  97.3784 253.2472 0004125 233.9741 126.1132 15.56405588101706
NUSAT-49 (KLARA DAN VO*)
1 60500U 24149AJ  26168.52754098  .00006876  00000+0  23976-3 0  9990
2 60500  97.3782 249.8126 0000887 339.3717  20.7487 15.29949737102183
FLOCK 4BE-11            
1 60501U 24149AK  26168.11774214  .00012864  00000+0  29398-3 0  9996
2 60501  97.3703 252.2740 0002535 258.2576 101.8387 15.42974691102341
YAM-7                   
1 60504U 24149AN  26168.12262414  .00005758  00000+0  18998-3 0  9992
2 60504  97.3786 248.3723 0001939 307.6598  52.4467 15.31818308102049
FLOCK 4BE-24            
1 60505U 24149AP  26168.03947877  .00017142  00000+0  38967-3 0  9994
2 60505  97.3720 252.4504 0002722 273.9042  86.1894 15.43067408102342
LUR-1                   
1 60506U 24149AQ  26168.11287847  .00005368  00000+0  18689-3 0  9994
2 60506  97.3742 246.9417 0002767 320.1046  39.9991 15.30104723101965
TANAGER-1               
1 60507U 24149AR  26166.73454697  .00004035  00000+0  87702-4 0  9993
2 60507  97.2612 260.9852 0004010 316.0052  44.0877 15.44920515102819
EAGLEEYE                
1 60508U 24149AS  26167.21466948  .00080227  00000+0  64414-3 0  9991
2 60508  97.3731 260.4983 0004208 238.6404 121.4447 15.70740411102785
FLOCK 4BE-29            
1 60509U 24149AT  26167.72637179  .00014154  00000+0  31092-3 0  9996
2 60509  97.3818 253.5920 0001384 295.8074  64.3031 15.44134151102341
TRANSPORTER-11 OBJECT AU
1 60510U 24149AU  26167.73310744  .00012067  00000+0  30232-3 0  9991
2 60510  97.3735 251.4496 0002263 292.4643  67.6364 15.40211773102244
FLOCK 4BE-2             
1 60511U 24149AV  26168.51031000  .00045864  00000+0  74079-3 0  9992
2 60511  97.3838 255.8138 0003433 252.2056 107.8822 15.52738196102558
FLOCK 4BE-13            
1 60512U 24149AW  26168.15593674  .00010986  00000+0  26067-3 0  9994
2 60512  97.3725 252.5667 0002917 260.3977  99.6940 15.41886601102364
FLOCK 4BE-27            
1 60513U 24149AX  26168.12925384  .00006961  00000+0  21105-3 0  9995
2 60513  97.3828 249.9801 0002473 316.9244  43.1805 15.34444298102134
FLOCK 4BE-9             
1 60514U 24149AY  26168.15505256  .00012150  00000+0  29862-3 0  9996
2 60514  97.3796 252.4260 0001392 295.8466  64.2637 15.40794201102313
