OBJECT_NAME,OBJECT_ID,EPOCH,MEAN_MOTION,ECCENTRICITY,INCLINATION,RA_OF_ASC_NODE,ARG_OF_PERICENTER,MEAN_ANOMALY,EPHEMERIS_TYPE,CLASSIFICATION_TYPE,NORAD_CAT_ID,ELEMENT_SET_NO,REV_AT_EPOCH,BSTAR,MEAN_MOTION_DOT,MEAN_MOTION_DDOT
FLOCK 4BE-7,2024-149P,2026-06-17T11:28:23.018016,15.40328609,.0002103,97.3760,251.5491,233.8372,126.2680,0,U,60481,999,10229,.43801E-3,.176E-3,0
TOMORROW-S2,2024-149T,2026-06-16T17:02:15.678816,15.32744951,.0001285,97.3822,248.6719,264.5379,95.5716,0,U,60485,999,10201,.20852E-3,.6515E-4,0
FLOCK 4BE-36,2024-149U,2026-06-17T02:48:52.179840,15.42719463,.0002372,97.3745,252.5445,252.1902,107.9087,0,U,60486,999,10234,.28847E-3,.12513E-3,0
FLOCK 4BE-25,2024-149V,2026-06-17T03:40:04.848096,15.38834525,.000133,97.3801,251.3027,217.9017,142.2135,0,U,60487,999,10223,.27185E-3,.1036E-3,0
FLOCK 4BE-31,2024-149W,2026-06-17T12:53:26.766240,15.44101644,.0001411,97.3801,253.8280,241.0070,119.1037,0,U,60488,999,10243,.35166E-3,.16007E-3,0
FLOCK 4BE-20,2024-149X,2026-06-17T02:47:26.177280,15.38053283,.0002537,97.3700,250.1453,249.6621,110.4351,0,U,60489,999,10220,.2936E-3,.10915E-3,0
FLOCK 4BE-23,2024-149Y,2026-06-16T17:11:05.911296,15.37662669,.0002002,97.3785,250.1196,260.7915,99.3103,0,U,60490,999,10212,.31281E-3,.11488E-3,0
FLOCK 4BE-15,2024-149Z,2026-06-17T12:51:52.540128,15.59762010,.0003148,97.3687,253.9291,238.2787,121.8163,0,U,60491,999,10248,.96244E-3,.7755E-3,0
FLOCK 4BE-17,2024-149AA,2026-06-17T03:44:18.309408,15.39782305,.0002087,97.3775,251.5246,235.0177,125.0873,0,U,60492,999,10225,.30505E-3,.12005E-3,0
NUSAT-50 (NANCY ROMAN),2024-149AB,2026-06-16T17:03:13.114080,15.29849362,.0003423,97.3792,248.9695,175.1344,184.9930,0,U,60493,999,10205,.27231E-3,.7797E-4,0
FLOCK 4BE-22,2024-149AC,2026-06-17T11:05:15.562752,15.41173805,.0002363,97.3735,252.0254,251.9089,108.1901,0,U,60494,999,10234,.31768E-3,.13096E-3,0
FLOCK 4BE-34,2024-149AD,2026-06-17T06:49:28.399008,15.41159325,.0002195,97.3788,252.6684,266.1536,93.9460,0,U,60495,999,10234,.28721E-3,.11824E-3,0
TYCHE,2024-149AE,2026-06-17T11:07:23.864160,15.25990153,.0000671,97.3754,246.2762,240.9162,119.2010,0,U,60496,999,10194,.13748E-3,.3461E-4,0
FLOCK 4BE-32,2024-149AF,2026-06-17T02:57:17.313120,15.42153799,.0002402,97.3724,252.0492,258.3522,101.7456,0,U,60497,999,10232,.33293E-3,.14187E-3,0
NUSAT-48 (HENRIETTA LEAVITT),2024-149AG,2026-06-17T03:46:08.720832,15.29859874,.0002398,97.3923,249.6562,276.0323,84.0644,0,U,60498,999,10213,.2475E-3,.7081E-4,0
FLOCK 4BE-30,2024-149AH,2026-06-16T17:49:22.422432,15.56405588,.0004125,97.3784,253.2472,233.9741,126.1132,0,U,60499,999,10170,.14465E-2,.103197E-2,0
NUSAT-49 (KLARA DAN VON NEUMANN),2024-149AJ,2026-06-17T12:39:39.540672,15.29949737,.0000887,97.3782,249.8126,339.3717,20.7487,0,U,60500,999,10218,.23976E-3,.6876E-4,0
FLOCK 4BE-11,2024-149AK,2026-06-17T02:49:32.920896,15.42974691,.0002535,97.3703,252.2740,258.2576,101.8387,0,U,60501,999,10234,.29398E-3,.12864E-3,0
YAM-7,2024-149AN,2026-06-17T02:56:34.725696,15.31818308,.0001939,97.3786,248.3723,307.6598,52.4467,0,U,60504,999,10204,.18998E-3,.5758E-4,0
FLOCK 4BE-24,2024-149AP,2026-06-17T00:56:50.965728,15.43067408,.0002722,97.3720,252.4504,273.9042,86.1894,0,U,60505,999,10234,.38967E-3,.17142E-3,0
LUR-1,2024-149AQ,2026-06-17T02:42:32.699808,15.30104723,.0002767,97.3742,246.9417,320.1046,39.9991,0,U,60506,999,10196,.18689E-3,.5368E-4,0
TANAGER-1,2024-149AR,2026-06-15T17:37:44.858208,15.44920515,.00040107,97.2612,260.9852,316.0052,44.0877,0,U,60507,999,10281,.87702047E-4,.4035E-4,0
EAGLEEYE,2024-149AS,2026-06-16T05:09:07.443072,15.70740411,.0004208,97.3731,260.4983,238.6404,121.4447,0,U,60508,999,10278,.64414E-3,.80227E-3,0
FLOCK 4BE-29,2024-149AT,2026-06-16T17:25:58.522656,15.44134151,.0001384,97.3818,253.5920,295.8074,64.3031,0,U,60509,999,10234,.31092E-3,.14154E-3,0
TRANSPORTER-11 OBJECT AU,2024-149AU,2026-06-16T17:35:40.482816,15.40211773,.0002263,97.3735,251.4496,292.4643,67.6364,0,U,60510,999,10224,.30232E-3,.12067E-3,0
FLOCK 4BE-2,2024-149AV,2026-06-17T12:14:50.784000,15.52738196,.0003433,97.3838,255.8138,252.2056,107.8822,0,U,60511,999,10255,.74079E-3,.45864E-3,0
FLOCK 4BE-13,2024-149AW,2026-06-17T03:44:32.934336,15.41886601,.0002917,97.3725,252.5667,260.3977,99.6940,0,U,60512,999,10236,.26067E-3,.10986E-3,0
FLOCK 4BE-27,2024-149AX,2026-06-17T03:06:07.531776,15.34444298,.0002473,97.3828,249.9801,316.9244,43.1805,0,U,60513,999,10213,.21105E-3,.6961E-4,0
FLOCK 4BE-9,2024-149AY,2026-06-17T03:43:16.541184,15.40794201,.0001392,97.3796,252.4260,295.8466,64.2637,0,U,60514,999,10231,.29862E-3,.1215E-3,0
